[{"OBJECT_NAME":"STARLINK-4501","OBJECT_ID":"2022-101AC","EPOCH":"2026-03-09T09:27:25.963200","MEAN_MOTION":15.08839409,"ECCENTRICITY":0.00013498,"INCLINATION":53.2178,"RA_OF_ASC_NODE":65.3219,"ARG_OF_PERICENTER":87.4741,"MEAN_ANOMALY":272.6406,"EPHEMERIS_TYPE":0,"CLASSIFICATION_TYPE":"U","NORAD_CAT_ID":53553,"ELEMENT_SET_NO":999,"REV_AT_EPOCH":19692,"BSTAR":-9.121516e-6,"MEAN_MOTION_DOT":-4.33e-6,"MEAN_MOTION_DDOT":0},{"OBJECT_NAME":"TITAN 3C TRANSTAGE DEB","OBJECT_ID":"1965-082PP","EPOCH":"2026-03-08T23:49:16.681152","MEAN_MOTION":15.10619215,"ECCENTRICITY":0.0014169,"INCLINATION":32.2612,"RA_OF_ASC_NODE":312.9247,"ARG_OF_PERICENTER":37.7873,"MEAN_ANOMALY":322.3781,"EPHEMERIS_TYPE":0,"CLASSIFICATION_TYPE":"U","NORAD_CAT_ID":3454,"ELEMENT_SET_NO":999,"REV_AT_EPOCH":23071,"BSTAR":0.00075143557,"MEAN_MOTION_DOT":0.00012814,"MEAN_MOTION_DDOT":0}]
